{
  "type": "FeatureCollection",
  "features": [
    {
      "type": "Feature",
      "properties": {
        "norad_id": 43823,
        "name": "GEO-KOMPSAT-2A",
        "group": "weather",
        "lat": -0.020998199183123983,
        "lon": 6.6029141015917014,
        "alt_km": 35786.2713898573,
        "timestamp": "2025-12-27T09:28:56.109764+00:00",
        "meta_object_name": "GEO-KOMPSAT-2A",
        "meta_object_id": "2018-100A",
        "meta_epoch": "2025-12-27T01:00:38.527776",
        "meta_mean_motion": 1.00272384,
        "meta_eccentricity": 3.4e-05,
        "meta_inclination": 0.0437,
        "meta_ra_of_asc_node": 168.9478,
        "meta_arg_of_pericenter": 299.8349,
        "meta_mean_anomaly": 130.4095,
        "meta_ephemeris_type": 0,
        "meta_classification_type": "U",
        "meta_norad_cat_id": 43823,
        "meta_element_set_no": 999,
        "meta_rev_at_epoch": 2590,
        "meta_bstar": 0,
        "meta_mean_motion_dot": -3.21e-06,
        "meta_mean_motion_ddot": 0,
        "tle_line1": "1 43823U 18100A   25361.04211259 -.00000321  00000+0  00000+0 0  9996",
        "tle_line2": "2 43823   0.0437 168.9478 0000340 299.8349 130.4095  1.00272384 25905"
      },
      "geometry": {
        "type": "Point",
        "coordinates": [
          6.6029141015917014,
          -0.020998199183123983
        ]
      }
    },
    {
      "type": "Feature",
      "properties": {
        "norad_id": 44387,
        "name": "METEOR-M2 2",
        "group": "weather",
        "lat": -56.504740583516174,
        "lon": 147.60877708262396,
        "alt_km": 818.4817740489598,
        "timestamp": "2025-12-27T09:28:56.109778+00:00",
        "meta_object_name": "METEOR-M2 2",
        "meta_object_id": "2019-038A",
        "meta_epoch": "2025-12-27T04:59:55.264128",
        "meta_mean_motion": 14.24299023,
        "meta_eccentricity": 0.000186,
        "meta_inclination": 98.8992,
        "meta_ra_of_asc_node": 341.1152,
        "meta_arg_of_pericenter": 121.2166,
        "meta_mean_anomaly": 238.9195,
        "meta_ephemeris_type": 0,
        "meta_classification_type": "U",
        "meta_norad_cat_id": 44387,
        "meta_element_set_no": 999,
        "meta_rev_at_epoch": 33681,
        "meta_bstar": 0.00028282,
        "meta_mean_motion_dot": 6.07e-06,
        "meta_mean_motion_ddot": 0,
        "tle_line1": "1 44387U 19038A   25361.20827852  .00000607  00000+0  28282-3 0  9995",
        "tle_line2": "2 44387  98.8992 341.1152 0001860 121.2166 238.9195 14.24299023336818"
      },
      "geometry": {
        "type": "Point",
        "coordinates": [
          147.60877708262396,
          -56.504740583516174
        ]
      }
    },
    {
      "type": "Feature",
      "properties": {
        "norad_id": 47719,
        "name": "ARKTIKA-M 1",
        "group": "weather",
        "lat": 52.9414547266513,
        "lon": -139.97123670481523,
        "alt_km": 29020.061985257864,
        "timestamp": "2025-12-27T09:28:56.109791+00:00",
        "meta_object_name": "ARKTIKA-M 1",
        "meta_object_id": "2021-016A",
        "meta_epoch": "2025-12-27T00:43:39.557280",
        "meta_mean_motion": 2.00630341,
        "meta_eccentricity": 0.7211282,
        "meta_inclination": 63.1774,
        "meta_ra_of_asc_node": 82.0436,
        "meta_arg_of_pericenter": 269.1745,
        "meta_mean_anomaly": 15.5297,
        "meta_ephemeris_type": 0,
        "meta_classification_type": "U",
        "meta_norad_cat_id": 47719,
        "meta_element_set_no": 999,
        "meta_rev_at_epoch": 3533,
        "meta_bstar": 0,
        "meta_mean_motion_dot": -4.6e-07,
        "meta_mean_motion_ddot": 0,
        "tle_line1": "1 47719U 21016A   25361.03031895 -.00000046  00000+0  00000+0 0  9993",
        "tle_line2": "2 47719  63.1774  82.0436 7211282 269.1745  15.5297  2.00630341 35330"
      },
      "geometry": {
        "type": "Point",
        "coordinates": [
          -139.97123670481523,
          52.9414547266513
        ]
      }
    },
    {
      "type": "Feature",
      "properties": {
        "norad_id": 49008,
        "name": "FENGYUN 3E",
        "group": "weather",
        "lat": -35.58594302616422,
        "lon": 8.068409555453867,
        "alt_km": 832.5862624098963,
        "timestamp": "2025-12-27T09:28:56.109803+00:00",
        "meta_object_name": "FENGYUN 3E",
        "meta_object_id": "2021-062A",
        "meta_epoch": "2025-12-27T04:34:41.244096",
        "meta_mean_motion": 14.19882803,
        "meta_eccentricity": 0.0001061,
        "meta_inclination": 98.7483,
        "meta_ra_of_asc_node": 1.5406,
        "meta_arg_of_pericenter": 182.5255,
        "meta_mean_anomaly": 177.5916,
        "meta_ephemeris_type": 0,
        "meta_classification_type": "U",
        "meta_norad_cat_id": 49008,
        "meta_element_set_no": 999,
        "meta_rev_at_epoch": 23217,
        "meta_bstar": 0.00015289,
        "meta_mean_motion_dot": 2.8e-06,
        "meta_mean_motion_ddot": 0,
        "tle_line1": "1 49008U 21062A   25361.19075514  .00000280  00000+0  15289-3 0  9998",
        "tle_line2": "2 49008  98.7483   1.5406 0001061 182.5255 177.5916 14.19882803232179"
      },
      "geometry": {
        "type": "Point",
        "coordinates": [
          8.068409555453867,
          -35.58594302616422
        ]
      }
    },
    {
      "type": "Feature",
      "properties": {
        "norad_id": 51850,
        "name": "GOES 18",
        "group": "weather",
        "lat": -0.020563764667600896,
        "lon": 101.35137075969591,
        "alt_km": 35788.12478509384,
        "timestamp": "2025-12-27T09:28:56.109815+00:00",
        "meta_object_name": "GOES 18",
        "meta_object_id": "2022-021A",
        "meta_epoch": "2025-12-27T01:11:38.876064",
        "meta_mean_motion": 1.00271498,
        "meta_eccentricity": 5.38e-05,
        "meta_inclination": 0.0427,
        "meta_ra_of_asc_node": 194.7343,
        "meta_arg_of_pericenter": 115.5056,
        "meta_mean_anomaly": 26.4539,
        "meta_ephemeris_type": 0,
        "meta_classification_type": "U",
        "meta_norad_cat_id": 51850,
        "meta_element_set_no": 999,
        "meta_rev_at_epoch": 486,
        "meta_bstar": 0,
        "meta_mean_motion_dot": 1.19e-06,
        "meta_mean_motion_ddot": 0,
        "tle_line1": "1 51850U 22021A   25361.04975551  .00000119  00000+0  00000+0 0  9998",
        "tle_line2": "2 51850   0.0427 194.7343 0000538 115.5056  26.4539  1.00271498  4863"
      },
      "geometry": {
        "type": "Point",
        "coordinates": [
          101.35137075969591,
          -0.020563764667600896
        ]
      }
    },
    {
      "type": "Feature",
      "properties": {
        "norad_id": 54234,
        "name": "NOAA 21 (JPSS-2)",
        "group": "weather",
        "lat": -47.62019216596345,
        "lon": -52.76353917970339,
        "alt_km": 833.0894346443829,
        "timestamp": "2025-12-27T09:28:56.109826+00:00",
        "meta_object_name": "NOAA 21 (JPSS-2)",
        "meta_object_id": "2022-150A",
        "meta_epoch": "2025-12-27T02:56:34.827648",
        "meta_mean_motion": 14.19528213,
        "meta_eccentricity": 0.0001545,
        "meta_inclination": 98.7479,
        "meta_ra_of_asc_node": 297.2526,
        "meta_arg_of_pericenter": 7.7391,
        "meta_mean_anomaly": 352.3809,
        "meta_ephemeris_type": 0,
        "meta_classification_type": "U",
        "meta_norad_cat_id": 54234,
        "meta_element_set_no": 999,
        "meta_rev_at_epoch": 16213,
        "meta_bstar": 7.8897e-05,
        "meta_mean_motion_dot": 1.22e-06,
        "meta_mean_motion_ddot": 0,
        "tle_line1": "1 54234U 22150A   25361.12262532  .00000122  00000+0  78897-4 0  9995",
        "tle_line2": "2 54234  98.7479 297.2526 0001545   7.7391 352.3809 14.19528213162138"
      },
      "geometry": {
        "type": "Point",
        "coordinates": [
          -52.76353917970339,
          -47.62019216596345
        ]
      }
    },
    {
      "type": "Feature",
      "properties": {
        "norad_id": 54743,
        "name": "METEOSAT-12 (MTG-I1)",
        "group": "weather",
        "lat": -0.3863331659412055,
        "lon": -121.98654234587073,
        "alt_km": 35779.95693130751,
        "timestamp": "2025-12-27T09:28:56.109838+00:00",
        "meta_object_name": "METEOSAT-12 (MTG-I1)",
        "meta_object_id": "2022-170C",
        "meta_epoch": "2025-12-27T02:43:44.733216",
        "meta_mean_motion": 1.00270941,
        "meta_eccentricity": 0.0001753,
        "meta_inclination": 0.7018,
        "meta_ra_of_asc_node": 25.9879,
        "meta_arg_of_pericenter": 242.3425,
        "meta_mean_anomaly": 228.1284,
        "meta_ephemeris_type": 0,
        "meta_classification_type": "U",
        "meta_norad_cat_id": 54743,
        "meta_element_set_no": 999,
        "meta_rev_at_epoch": 1125,
        "meta_bstar": 0,
        "meta_mean_motion_dot": 1.4e-07,
        "meta_mean_motion_ddot": 0,
        "tle_line1": "1 54743U 22170C   25361.11371219  .00000014  00000+0  00000+0 0  9990",
        "tle_line2": "2 54743   0.7018  25.9879 0001753 242.3425 228.1284  1.00270941 11259"
      },
      "geometry": {
        "type": "Point",
        "coordinates": [
          -121.98654234587073,
          -0.3863331659412055
        ]
      }
    }
  ]
}